CCSDS_OMM_VERS = 2.0
CREATION_DATE  = 
ORIGINATOR     = 

OBJECT_NAME    = STARLINK-35827
OBJECT_ID      = 2025-254T
CENTER_NAME    = EARTH
REF_FRAME      = TEME
TIME_SYSTEM    = UTC
MEAN_ELEMENT_THEORY = SGP/SGP4

EPOCH          = 2025-11-19T12:16:32.490624
MEAN_MOTION    = 15.79623870
ECCENTRICITY   = .00017613
INCLINATION    = 53.1571
RA_OF_ASC_NODE = 30.2014
ARG_OF_PERICENTER = 85.9197
MEAN_ANOMALY   = 274.2026

EPHEMERIS_TYPE = 0
CLASSIFICATION_TYPE = U
NORAD_CAT_ID   = 66365
ELEMENT_SET_NO = 999
REV_AT_EPOCH   = 202
BSTAR          = -.37232594E-2
MEAN_MOTION_DOT = -.64511E-2
MEAN_MOTION_DDOT = 0

CCSDS_OMM_VERS = 2.0
CREATION_DATE  = 
ORIGINATOR     = 

OBJECT_NAME    = STARLINK-35845
OBJECT_ID      = 2025-254U
CENTER_NAME    = EARTH
REF_FRAME      = TEME
TIME_SYSTEM    = UTC
MEAN_ELEMENT_THEORY = SGP/SGP4

EPOCH          = 2025-11-19T13:46:30.360000
MEAN_MOTION    = 15.79461414
ECCENTRICITY   = .00019211
INCLINATION    = 53.1568
RA_OF_ASC_NODE = 29.8794
ARG_OF_PERICENTER = 9.2335
MEAN_ANOMALY   = 350.8722

EPHEMERIS_TYPE = 0
CLASSIFICATION_TYPE = U
NORAD_CAT_ID   = 66366
ELEMENT_SET_NO = 999
REV_AT_EPOCH   = 203
BSTAR          = -.74917196E-2
MEAN_MOTION_DOT = -.1228591E-1
MEAN_MOTION_DDOT = 0

CCSDS_OMM_VERS = 2.0
CREATION_DATE  = 
ORIGINATOR     = 

OBJECT_NAME    = STARLINK-35846
OBJECT_ID      = 2025-254V
CENTER_NAME    = EARTH
REF_FRAME      = TEME
TIME_SYSTEM    = UTC
MEAN_ELEMENT_THEORY = SGP/SGP4

EPOCH          = 2025-11-19T12:15:58.324608
MEAN_MOTION    = 15.79589514
ECCENTRICITY   = .00016723
INCLINATION    = 53.1568
RA_OF_ASC_NODE = 30.1984
ARG_OF_PERICENTER = 85.5683
MEAN_ANOMALY   = 274.5531

EPHEMERIS_TYPE = 0
CLASSIFICATION_TYPE = U
NORAD_CAT_ID   = 66367
ELEMENT_SET_NO = 999
REV_AT_EPOCH   = 202
BSTAR          = -.36110547E-2
MEAN_MOTION_DOT = -.626057E-2
MEAN_MOTION_DDOT = 0

CCSDS_OMM_VERS = 2.0
CREATION_DATE  = 
ORIGINATOR     = 

OBJECT_NAME    = STARLINK-34861
OBJECT_ID      = 2025-254W
CENTER_NAME    = EARTH
REF_FRAME      = TEME
TIME_SYSTEM    = UTC
MEAN_ELEMENT_THEORY = SGP/SGP4

EPOCH          = 2025-11-19T13:45:57.691296
MEAN_MOTION    = 15.79272660
ECCENTRICITY   = .0001095
INCLINATION    = 53.1563
RA_OF_ASC_NODE = 29.8760
ARG_OF_PERICENTER = 47.0822
MEAN_ANOMALY   = 313.0292

EPHEMERIS_TYPE = 0
CLASSIFICATION_TYPE = U
NORAD_CAT_ID   = 66368
ELEMENT_SET_NO = 999
REV_AT_EPOCH   = 203
BSTAR          = -.35105677E-2
MEAN_MOTION_DOT = -.601489E-2
MEAN_MOTION_DDOT = 0

CCSDS_OMM_VERS = 2.0
CREATION_DATE  = 
ORIGINATOR     = 

OBJECT_NAME    = STARLINK-35795
OBJECT_ID      = 2025-254X
CENTER_NAME    = EARTH
REF_FRAME      = TEME
TIME_SYSTEM    = UTC
MEAN_ELEMENT_THEORY = SGP/SGP4

EPOCH          = 2025-11-19T04:38:42.759744
MEAN_MOTION    = 15.83335616
ECCENTRICITY   = .00072228
INCLINATION    = 53.1564
RA_OF_ASC_NODE = 31.7726
ARG_OF_PERICENTER = 232.7086
MEAN_ANOMALY   = 127.3280

EPHEMERIS_TYPE = 0
CLASSIFICATION_TYPE = U
NORAD_CAT_ID   = 66369
ELEMENT_SET_NO = 999
REV_AT_EPOCH   = 197
BSTAR          = -.35438392E-2
MEAN_MOTION_DOT = -.726023E-2
MEAN_MOTION_DDOT = 0

CCSDS_OMM_VERS = 2.0
CREATION_DATE  = 
ORIGINATOR     = 

OBJECT_NAME    = STARLINK-35824
OBJECT_ID      = 2025-254Y
CENTER_NAME    = EARTH
REF_FRAME      = TEME
TIME_SYSTEM    = UTC
MEAN_ELEMENT_THEORY = SGP/SGP4

EPOCH          = 2025-11-19T00:00:02.000160
MEAN_MOTION    = 15.73009276
ECCENTRICITY   = .0004522
INCLINATION    = 53.1570
RA_OF_ASC_NODE = 32.7773
ARG_OF_PERICENTER = 337.1244
MEAN_ANOMALY   = 343.6414

EPHEMERIS_TYPE = 0
CLASSIFICATION_TYPE = U
NORAD_CAT_ID   = 66370
ELEMENT_SET_NO = 999
REV_AT_EPOCH   = 307
BSTAR          = .6639546E-1
MEAN_MOTION_DOT = .11656309E+0
MEAN_MOTION_DDOT = 0

CCSDS_OMM_VERS = 2.0
CREATION_DATE  = 
ORIGINATOR     = 

OBJECT_NAME    = STARLINK-35804
OBJECT_ID      = 2025-254Z
CENTER_NAME    = EARTH
REF_FRAME      = TEME
TIME_SYSTEM    = UTC
MEAN_ELEMENT_THEORY = SGP/SGP4

EPOCH          = 2025-11-19T06:08:26.493216
MEAN_MOTION    = 15.79969074
ECCENTRICITY   = .00031284
INCLINATION    = 53.1567
RA_OF_ASC_NODE = 31.4498
ARG_OF_PERICENTER = 341.8781
MEAN_ANOMALY   = 18.2130

EPHEMERIS_TYPE = 0
CLASSIFICATION_TYPE = U
NORAD_CAT_ID   = 66371
ELEMENT_SET_NO = 999
REV_AT_EPOCH   = 198
BSTAR          = -.6325645E-3
MEAN_MOTION_DOT = -.118875E-2
MEAN_MOTION_DDOT = 0

CCSDS_OMM_VERS = 2.0
CREATION_DATE  = 
ORIGINATOR     = 

OBJECT_NAME    = STARLINK-35821
OBJECT_ID      = 2025-254AA
CENTER_NAME    = EARTH
REF_FRAME      = TEME
TIME_SYSTEM    = UTC
MEAN_ELEMENT_THEORY = SGP/SGP4

EPOCH          = 2025-11-19T13:44:45.405600
MEAN_MOTION    = 15.79123431
ECCENTRICITY   = .00014807
INCLINATION    = 53.1570
RA_OF_ASC_NODE = 29.8710
ARG_OF_PERICENTER = 43.1961
MEAN_ANOMALY   = 316.9177

EPHEMERIS_TYPE = 0
CLASSIFICATION_TYPE = U
NORAD_CAT_ID   = 66372
ELEMENT_SET_NO = 999
REV_AT_EPOCH   = 203
BSTAR          = -.36921001E-2
MEAN_MOTION_DOT = -.626534E-2
MEAN_MOTION_DDOT = 0

CCSDS_OMM_VERS = 2.0
CREATION_DATE  = 
ORIGINATOR     = 

OBJECT_NAME    = STARLINK-35809
OBJECT_ID      = 2025-254AB
CENTER_NAME    = EARTH
REF_FRAME      = TEME
TIME_SYSTEM    = UTC
MEAN_ELEMENT_THEORY = SGP/SGP4

EPOCH          = 2025-11-19T00:00:02.000160
MEAN_MOTION    = 15.66427650
ECCENTRICITY   = .00150635
INCLINATION    = 53.1580
RA_OF_ASC_NODE = 32.7809
ARG_OF_PERICENTER = 282.2680
MEAN_ANOMALY   = 31.6118

EPHEMERIS_TYPE = 0
CLASSIFICATION_TYPE = U
NORAD_CAT_ID   = 66373
ELEMENT_SET_NO = 999
REV_AT_EPOCH   = 310
BSTAR          = .19801091E+0
MEAN_MOTION_DOT = .21226236E+0
MEAN_MOTION_DDOT = 0

CCSDS_OMM_VERS = 2.0
CREATION_DATE  = 
ORIGINATOR     = 

OBJECT_NAME    = STARLINK-35831
OBJECT_ID      = 2025-254AC
CENTER_NAME    = EARTH
REF_FRAME      = TEME
TIME_SYSTEM    = UTC
MEAN_ELEMENT_THEORY = SGP/SGP4

EPOCH          = 2025-11-19T13:42:59.751360
MEAN_MOTION    = 15.78921441
ECCENTRICITY   = .00012004
INCLINATION    = 53.1567
RA_OF_ASC_NODE = 29.8616
ARG_OF_PERICENTER = 63.4766
MEAN_ANOMALY   = 296.6379

EPHEMERIS_TYPE = 0
CLASSIFICATION_TYPE = U
NORAD_CAT_ID   = 66374
ELEMENT_SET_NO = 999
REV_AT_EPOCH   = 203
BSTAR          = -.39386568E-2
MEAN_MOTION_DOT = -.659624E-2
MEAN_MOTION_DDOT = 0

CCSDS_OMM_VERS = 2.0
CREATION_DATE  = 
ORIGINATOR     = 

OBJECT_NAME    = STARLINK-35826
OBJECT_ID      = 2025-254AD
CENTER_NAME    = EARTH
REF_FRAME      = TEME
TIME_SYSTEM    = UTC
MEAN_ELEMENT_THEORY = SGP/SGP4

EPOCH          = 2025-11-19T12:11:17.067552
MEAN_MOTION    = 15.79120494
ECCENTRICITY   = .00018155
INCLINATION    = 53.1566
RA_OF_ASC_NODE = 30.1750
ARG_OF_PERICENTER = 56.5923
MEAN_ANOMALY   = 303.5272

EPHEMERIS_TYPE = 0
CLASSIFICATION_TYPE = U
NORAD_CAT_ID   = 66375
ELEMENT_SET_NO = 999
REV_AT_EPOCH   = 202
BSTAR          = -.40317529E-2
MEAN_MOTION_DOT = -.679901E-2
MEAN_MOTION_DDOT = 0

CCSDS_OMM_VERS = 2.0
CREATION_DATE  = 
ORIGINATOR     = 

OBJECT_NAME    = SHIYAN-32 A
OBJECT_ID      = 2025-255A
CENTER_NAME    = EARTH
REF_FRAME      = TEME
TIME_SYSTEM    = UTC
MEAN_ELEMENT_THEORY = SGP/SGP4

EPOCH          = 2025-11-19T10:09:34.521408
MEAN_MOTION    = 15.41638576
ECCENTRICITY   = .00131443
INCLINATION    = 52.9970
RA_OF_ASC_NODE = 288.8070
ARG_OF_PERICENTER = 328.5901
MEAN_ANOMALY   = 31.4317

EPHEMERIS_TYPE = 0
CLASSIFICATION_TYPE = U
NORAD_CAT_ID   = 66376
ELEMENT_SET_NO = 999
REV_AT_EPOCH   = 175
BSTAR          = .47346993E-3
MEAN_MOTION_DOT = .19946E-3
MEAN_MOTION_DDOT = 0

